IRIDIUM 36 [-]          
1 24967U 97056C   23339.24519018  .00000637  00000+0  21049-3 0  9999
2 24967  86.3985  48.0936 0002177  89.6908 270.4538 14.36538887371807
IRIDIUM 39 [-]          
1 25042U 97069D   23339.37704343  .00001196  00000+0  31923-3 0  9992
2 25042  86.3912  90.9142 0018873  20.6575 339.5386 14.47549155367931
IRIDIUM 38 [-]          
1 25043U 97069E   23339.80188993  .00000783  00000+0  25760-3 0  9991
2 25043  86.3950 108.3448 0003518 121.4773 238.6768 14.36999785365596
IRIDIUM 42 [-]          
1 25077U 97077A   23339.83403735  .00000712  00000+0  24175-3 0  9995
2 25077  86.3952 113.8201 0002531 105.3827 254.7649 14.35299681360935
IRIDIUM 44 [-]          
1 25078U 97077B   23339.40644548  .00000838  00000+0  26459-3 0  9994
2 25078  86.3948  97.4225 0003840  80.8731 279.2902 14.39107553363161
IRIDIUM 45 [-]          
1 25104U 97082A   23339.43316913  .00009529  00000+0  60035-3 0  9999
2 25104  86.3742 313.2511 0173203 224.1424 134.5878 14.97325418367663
IRIDIUM 24 [-]          
1 25105U 97082B   23339.94243751  .00000805  00000+0  24474-3 0  9990
2 25105  86.3890 317.1248 0013479 118.7652 241.4903 14.40867777362655
IRIDIUM 51 [-]          
1 25262U 98018A   23339.89938910  .00010880  00000+0  58430-3 0  9999
2 25262  86.3907 323.4211 0160690 174.5920 185.7101 15.04240089362140
